      2.10          N: GNSS NAV DATA                        RINEX VERSION / TYPE
fic2rin                                 01/29/2019 12:59:53 PGM / RUN BY / DATE
                                                            END OF HEADER
17 19  1 28 18  0  0.0 1.755077391863e-06 5.456968210638e-12 0.000000000000e+00
    9.200000000000e+01-5.981250000000e+01 3.858732160254e-09-1.962626086980e+00
   -2.976506948471e-06 1.300352811813e-02 6.914138793945e-06 5.153688123703e+03
    1.512000000000e+05 3.185123205185e-07-1.849379063227e+00 5.960464477539e-08
    9.836268298342e-01 2.578437500000e+02-1.729075469791e+00-7.728179052535e-09
   -1.600066649198e-10 1.000000000000e+00 2.038000000000e+03 0.000000000000e+00
    2.400000000000e+00 0.000000000000e+00-1.117587089539e-08 9.200000000000e+01
    1.440060000000e+05 4.000000000000e+00
18 19  1 28 18  0  0.0 2.035219222307e-05 3.751665644813e-12 0.000000000000e+00
    7.800000000000e+01-2.606250000000e+01 4.499115977668e-09 1.965646470071e+00
   -1.501291990280e-06 1.500967727043e-02 8.938834071159e-06 5.153741561890e+03
    1.512000000000e+05 1.508742570877e-07-9.013022311300e-01-2.924352884293e-07
    9.527009947233e-01 2.009375000000e+02 1.373336938756e+00-7.976760835535e-09
    3.793015137162e-10 1.000000000000e+00 2.038000000000e+03 0.000000000000e+00
    2.400000000000e+00 0.000000000000e+00-6.053596735001e-09 7.800000000000e+01
    1.440060000000e+05 4.000000000000e+00
12 19  1 28 18  0  0.0 2.726144157350e-04-3.183231456205e-12 0.000000000000e+00
    7.400000000000e+01 3.071875000000e+01 4.135886561991e-09 8.614852144200e-01
    1.570209860802e-06 7.362681906670e-03 4.887580871582e-06 5.153710649490e+03
    1.512000000000e+05-6.332993507385e-08-2.882816926793e+00 6.519258022308e-08
    9.844051081041e-01 2.977500000000e+02 1.026799300781e+00-8.146767917013e-09
   -1.685784505406e-10 1.000000000000e+00 2.038000000000e+03 0.000000000000e+00
    2.400000000000e+00 0.000000000000e+00-1.257285475731e-08 7.400000000000e+01
    1.440060000000e+05 4.000000000000e+00
31 19  1 28 18  0  0.0 6.256904453039e-05-2.614797267597e-12 0.000000000000e+00
    1.040000000000e+02 7.353125000000e+01 4.576976363723e-09 1.150121747096e+00
    4.062429070473e-06 9.279903257266e-03 8.087605237961e-06 5.153555318832e+03
    1.512000000000e+05 5.215406417847e-08 2.316607183805e+00 1.825392246246e-07
    9.608931223812e-01 2.205937500000e+02-2.499407826940e-02-8.057121325729e-09
   -1.396486740707e-10 1.000000000000e+00 2.038000000000e+03 0.000000000000e+00
    2.400000000000e+00 0.000000000000e+00-1.350417733192e-08 1.040000000000e+02
    1.440060000000e+05 4.000000000000e+00
26 19  1 28 18  0  0.0 1.090951263905e-04 1.045918907039e-11 0.000000000000e+00
    8.400000000000e+01 2.600000000000e+01 4.865559812953e-09-1.347971573341e-01
    1.247972249985e-06 3.596846363507e-03 4.211440682411e-06 5.153787885666e+03
    1.512000000000e+05 8.195638656616e-08-2.971999132470e+00-3.166496753693e-08
    9.532700230428e-01 2.928750000000e+02 1.060188479277e-01-8.452137779750e-09
   -1.435774091468e-10 1.000000000000e+00 2.038000000000e+03 0.000000000000e+00
    2.400000000000e+00 0.000000000000e+00 7.450580596924e-09 8.400000000000e+01
    1.440060000000e+05 4.000000000000e+00
 4 19  1 28 18  0  0.0 9.807385504246e-05 1.136868377216e-11 0.000000000000e+00
    1.200000000000e+01-8.437500000000e+00 4.751983653479e-09 1.341713408755e+00
   -4.079192876816e-07 3.127629170194e-04 9.687617421150e-06 5.153587993622e+03
    1.512000000000e+05 1.862645149231e-09 1.270451471175e+00-6.332993507385e-08
    9.596060953314e-01 1.945312500000e+02-1.492442384730e+00-8.048192382375e-09
   -2.175090601254e-10 1.000000000000e+00 2.038000000000e+03 0.000000000000e+00
    6.850000000000e+00 6.300000000000e+01-8.847564458847e-09 2.680000000000e+02
    1.440660000000e+05 4.000000000000e+00
13 19  1 28 17 59 44.0-7.674749940634e-05 1.250555214938e-12 0.000000000000e+00
    5.000000000000e+00-5.937500000000e+00 4.468043254793e-09-3.042263294089e+00
   -3.799796104431e-07 3.735639620572e-03 9.544193744659e-06 5.153663852692e+03
    1.511840000000e+05 1.862645149231e-08 1.361591925826e+00-3.352761268616e-08
    9.677260777212e-01 1.987500000000e+02 1.376000242562e+00-7.859970256453e-09
   -1.935794919343e-10 1.000000000000e+00 2.038000000000e+03 0.000000000000e+00
    2.400000000000e+00 0.000000000000e+00-1.117587089539e-08 5.000000000000e+00
    1.449060000000e+05 4.000000000000e+00
22 19  1 28 17 59 44.0-6.330404430628e-04-8.412825991400e-12 0.000000000000e+00
    3.700000000000e+01-1.743750000000e+01 5.505586472633e-09-2.701899240629e+00
   -1.000240445137e-06 7.115620304830e-03 6.007030606270e-06 5.153588129044e+03
    1.511840000000e+05 7.636845111847e-08 1.249036793567e-01 8.009374141693e-08
    9.269519029703e-01 2.397500000000e+02-1.428273657079e+00-8.441423047724e-09
    2.467959943295e-10 1.000000000000e+00 2.038000000000e+03 0.000000000000e+00
    2.400000000000e+00 0.000000000000e+00-1.816079020500e-08 3.700000000000e+01
    1.504560000000e+05 4.000000000000e+00
 5 19  1 28 19 59 44.0 9.522773325443e-07 1.136868377216e-13 0.000000000000e+00
    4.000000000000e+00-1.478125000000e+01 4.970921344541e-09-1.299132462882e-01
   -6.575137376785e-07 5.559414625168e-03 6.826594471931e-06 5.153613567352e+03
    1.583840000000e+05 2.980232238770e-08 1.683067076557e-01 6.705522537231e-08
    9.494748112427e-01 2.413437500000e+02 7.195699117180e-01-8.355348033783e-09
    2.357241045694e-10 1.000000000000e+00 2.038000000000e+03 0.000000000000e+00
    2.400000000000e+00 0.000000000000e+00-1.117587089539e-08 4.000000000000e+00
    1.512060000000e+05 4.000000000000e+00
13 19  1 28 19 59 44.0-7.673772051930e-05 1.250555214938e-12 0.000000000000e+00
    6.000000000000e+00-5.906250000000e+00 4.442327897931e-09-1.992065948423e+00
   -2.905726432800e-07 3.735223435797e-03 9.693205356598e-06 5.153664527893e+03
    1.583840000000e+05 5.774199962616e-08 1.361535426467e+00-2.048909664154e-08
    9.677245811560e-01 1.946562500000e+02 1.375988808394e+00-7.879613931834e-09
   -2.153661137202e-10 1.000000000000e+00 2.038000000000e+03 0.000000000000e+00
    2.400000000000e+00 0.000000000000e+00-1.117587089539e-08 6.000000000000e+00
    1.512060000000e+05 4.000000000000e+00
22 19  1 28 19 59 44.0-6.331009790301e-04-8.412825991400e-12 0.000000000000e+00
    5.800000000000e+01-1.321875000000e+01 5.480585431239e-09-1.651725641049e+00
   -4.377216100693e-07 7.116042776033e-03 6.359070539474e-06 5.153586935043e+03
    1.583840000000e+05-1.490116119385e-08 1.248428687780e-01 1.769512891769e-07
    9.269531844866e-01 2.379687500000e+02-1.428206768076e+00-8.547141737046e-09
    2.235807416067e-10 1.000000000000e+00 2.038000000000e+03 0.000000000000e+00
    2.400000000000e+00 0.000000000000e+00-1.816079020500e-08 5.800000000000e+01
    1.512060000000e+05 4.000000000000e+00
 2 19  1 28 20  0  0.0-1.252861693501e-04-1.000444171950e-11 0.000000000000e+00
    2.400000000000e+01-4.043750000000e+01 4.381968240852e-09-2.737886116906e+00
   -1.991167664528e-06 1.883133733645e-02 8.810311555862e-06 5.153645364761e+03
    1.584000000000e+05 2.775341272354e-07-9.150779879398e-01-2.048909664154e-08
    9.533124696109e-01 2.020625000000e+02-1.783241075217e+00-7.715678531838e-09
    3.496574217780e-10 1.000000000000e+00 2.038000000000e+03 0.000000000000e+00
    2.400000000000e+00 0.000000000000e+00-2.048909664154e-08 2.400000000000e+01
    1.512060000000e+05 4.000000000000e+00
 1 19  1 28 20  0  0.0-1.532887108624e-04-6.707523425575e-12 0.000000000000e+00
    4.900000000000e+01-1.937500000000e+01 4.002309569401e-09-3.056200532185e+00
   -1.005828380585e-06 8.313633035868e-03 9.194016456604e-06 5.153662078857e+03
    1.584000000000e+05 7.450580596924e-09-8.488128474793e-01-2.421438694000e-08
    9.742436688850e-01 2.094062500000e+02 6.860381016349e-01-7.716035689572e-09
    3.668009930194e-10 1.000000000000e+00 2.038000000000e+03 0.000000000000e+00
    2.400000000000e+00 0.000000000000e+00 5.587935447693e-09 4.900000000000e+01
    1.512060000000e+05 4.000000000000e+00
 3 19  1 28 20  0  0.0 1.800204627216e-04 2.160049916711e-12 0.000000000000e+00
    2.300000000000e+01-1.818750000000e+01 4.656979696183e-09 2.176668227837e+00
   -8.847564458847e-07 1.888920320198e-03 6.644055247307e-06 5.153586093903e+03
    1.584000000000e+05-2.607703208923e-08 1.935074187150e-01-2.421438694000e-08
    9.625916814530e-01 2.499687500000e+02 6.614510203414e-01-8.117123825074e-09
    1.907222300607e-10 1.000000000000e+00 2.038000000000e+03 0.000000000000e+00
    2.400000000000e+00 0.000000000000e+00 2.328306436539e-09 2.300000000000e+01
    1.512060000000e+05 4.000000000000e+00
16 19  1 28 20  0  0.0-1.562247052789e-05-2.387423592154e-12 0.000000000000e+00
    5.000000000000e+01 1.987500000000e+01 4.234462096629e-09 1.876140503068e-02
    1.128762960434e-06 1.050795032643e-02 4.276633262634e-06 5.153764553070e+03
    1.584000000000e+05 7.636845111847e-08-2.863972233448e+00 8.381903171539e-08
    9.847772378905e-01 3.058750000000e+02 5.319774979695e-01-8.220342410257e-09
   -1.578637185147e-10 1.000000000000e+00 2.038000000000e+03 0.000000000000e+00
    2.400000000000e+00 0.000000000000e+00-1.071020960808e-08 5.000000000000e+01
    1.512060000000e+05 4.000000000000e+00
 8 19  1 28 20  0  0.0-1.307297497988e-04-1.364242052659e-12 0.000000000000e+00
    4.900000000000e+01-4.762500000000e+01 4.254462929744e-09-5.323496014234e-01
   -2.529472112656e-06 4.187542246655e-03 6.921589374542e-06 5.153687086105e+03
    1.584000000000e+05 3.352761268616e-08-1.915341957498e+00-7.823109626770e-08
    9.699464216360e-01 2.528437500000e+02-3.678249056580e-01-8.078550789781e-09
   -2.153661137202e-10 1.000000000000e+00 2.038000000000e+03 0.000000000000e+00
    2.400000000000e+00 0.000000000000e+00 5.122274160385e-09 4.900000000000e+01
    1.512060000000e+05 4.000000000000e+00
